COMMENT,ORIGINATOR,NORAD_CAT_ID,OBJECT_NAME,OBJECT_TYPE,CLASSIFICATION_TYPE,INTLDES,EPOCH,EPOCH_MICROSECONDS,MEAN_MOTION,ECCENTRICITY,INCLINATION,RA_OF_ASC_NODE,ARG_OF_PERICENTER,MEAN_ANOMALY,EPHEMERIS_TYPE,ELEMENT_SET_NO,REV_AT_EPOCH,BSTAR,MEAN_MOTION_DOT,MEAN_MOTION_DDOT,FILE,TLE_LINE0,TLE_LINE1,TLE_LINE2,OBJECT_ID,OBJECT_NUMBER,SEMIMAJOR_AXIS,PERIOD,APOGEE,PERIGEE,DECAYED,date
GENERATED VIA SPACETRACK.ORG API,18 SPCS,48904,SPACEBEE-111,PAYLOAD,U,21059AB,2023/2/5 14:07,187168,15.23578034,0.0009449,97.5806,172.2229,8.7864,351.3536,0,999,8935,0.00092428,0.00022108,0,3773728,0 SPACEBEE-111,1 48904U 21059AB  23036.58870587  .00022108  00000-0  92428-3 0  9995,2 48904  97.5806 172.2229 0009449   8.7864 351.3536 15.23578034 89355,2021-059AB,48904,6873.196,94.514,501.555,488.566,0,2023/3/11
GENERATED VIA SPACETRACK.ORG API,18 SPCS,48904,SPACEBEE-111,PAYLOAD,U,21059AB,2023/2/5 22:00,410976,15.23594023,0.0009425,97.5807,172.5547,7.888,352.2502,0,999,8940,0.00092924,0.00022238,0,3774172,0 SPACEBEE-111,1 48904U 21059AB  23036.91708809  .00022238  00000-0  92924-3 0  9994,2 48904  97.5807 172.5547 0009425   7.8880 352.2502 15.23594023 89409,2021-059AB,48904,6873.148,94.513,501.491,488.535,0,2023/3/12
GENERATED VIA SPACETRACK.ORG API,18 SPCS,48904,SPACEBEE-111,PAYLOAD,U,21059AB,2023/2/6 2:44,587840,15.23603447,0.0009425,97.5808,172.754,7.2794,352.8577,0,999,8943,0.00097409,0.00023325,0,3774385,0 SPACEBEE-111,1 48904U 21059AB  23037.11411560  .00023325  00000-0  97409-3 0  9993,2 48904  97.5808 172.7540 0009425   7.2794 352.8577 15.23603447 89435,2021-059AB,48904,6873.119,94.513,501.462,488.506,0,2023/3/13
GENERATED VIA SPACETRACK.ORG API,18 SPCS,48904,SPACEBEE-111,PAYLOAD,U,21059AB,2023/2/6 7:28,642016,15.23617217,0.0009444,97.5806,172.9532,6.5075,353.6283,0,999,8946,0.0011401,0.00027339,0,3775254,0 SPACEBEE-111,1 48904U 21059AB  23037.31114169  .00027339  00000-0  11401-2 0  9996,2 48904  97.5806 172.9532 0009444   6.5075 353.6283 15.23617217 89467,2021-059AB,48904,6873.078,94.512,501.434,488.452,0,2023/3/14
GENERATED VIA SPACETRACK.ORG API,18 SPCS,48904,SPACEBEE-111,PAYLOAD,U,21059AB,2023/2/6 20:04,808896,15.23648483,0.000937,97.5808,173.4837,4.8581,355.2745,0,999,8954,0.0011802,0.00028332,0,3776034,0 SPACEBEE-111,1 48904U 21059AB  23037.83653714  .00028332  00000-0  11802-2 0  9996,2 48904  97.5808 173.4837 0009370   4.8581 355.2745 15.23648483 89543,2021-059AB,48904,6872.984,94.51,501.289,488.409,0,2023/3/15
GENERATED VIA SPACETRACK.ORG API,18 SPCS,48904,SPACEBEE-111,PAYLOAD,U,21059AB,2023/2/7 2:22,547168,15.23663382,0.0009392,97.5809,173.7493,4.0292,356.1019,0,999,8958,0.0012265,0.00029464,0,3776223,0 SPACEBEE-111,1 48904U 21059AB  23038.09923087  .00029464  00000-0  12265-2 0  9999,2 48904  97.5809 173.7493 0009392   4.0292 356.1019 15.23663382 89583,2021-059AB,48904,6872.939,94.509,501.259,488.349,0,2023/3/16
GENERATED VIA SPACETRACK.ORG API,18 SPCS,48904,SPACEBEE-111,PAYLOAD,U,21059AB,2023/2/7 8:41,924288,15.23686567,0.0009408,97.5808,174.0148,3.0975,357.0318,0,999,8962,0.0014159,0.0003407,0,3777208,0 SPACEBEE-111,1 48904U 21059AB  23038.36192042  .00034070  00000-0  14159-2 0  9991,2 48904  97.5808 174.0148 0009408   3.0975 357.0318 15.23686567 89625,2021-059AB,48904,6872.869,94.508,501.2,488.268,0,2023/3/17
GENERATED VIA SPACETRACK.ORG API,18 SPCS,48904,SPACEBEE-111,PAYLOAD,U,21059AB,2023/2/7 19:43,33664,15.23716825,0.0009342,97.5809,174.4791,1.3626,358.7634,0,999,8969,0.001327,0.00031945,0,3777526,0 SPACEBEE-111,1 48904U 21059AB  23038.82162076  .00031945  00000-0  13270-2 0  9997,2 48904  97.5809 174.4791 0009342   1.3626 358.7634 15.23716825 89692,2021-059AB,48904,6872.778,94.506,501.064,488.223,0,2023/3/18
GENERATED VIA SPACETRACK.ORG API,18 SPCS,48904,SPACEBEE-111,PAYLOAD,U,21059AB,2023/2/7 21:17,954496,15.23721964,0.0009365,97.5809,174.5456,1.0578,359.0677,0,999,8970,0.0013269,0.00031948,0,3777976,0 SPACEBEE-111,1 48904U 21059AB  23038.88729114  .00031948  00000-0  13269-2 0  9996,2 48904  97.5809 174.5456 0009365   1.0578 359.0677 15.23721964 89702,2021-059AB,48904,6872.763,94.505,501.064,488.191,0,2023/3/19
GENERATED VIA SPACETRACK.ORG API,18 SPCS,48904,SPACEBEE-111,PAYLOAD,U,21059AB,2023/2/8 8:19,964864,15.23758367,0.0009372,97.5811,175.01,359.0965,1.0253,0,999,8977,0.0014553,0.00035099,0,3780324,0 SPACEBEE-111,1 48904U 21059AB  23039.34697876  .00035099  00000-0  14553-2 0  9995,2 48904  97.5811 175.0100 0009372 359.0965   1.0253 15.23758367 89779,2021-059AB,48904,6872.653,94.503,500.959,488.077,0,2023/3/20
GENERATED VIA SPACETRACK.ORG API,18 SPCS,48904,SPACEBEE-111,PAYLOAD,U,21059AB,2023/2/8 19:21,145792,15.23793876,0.0009521,97.5813,175.4748,357.2023,2.9159,0,999,8984,0.0015327,0.0003702,0,3780414,0 SPACEBEE-111,1 48904U 21059AB  23039.80665678  .00037020  00000-0  15327-2 0  9997,2 48904  97.5813 175.4748 0009521 357.2023   2.9159 15.23793876 89841,2021-059AB,48904,6872.547,94.501,500.955,487.868,0,2023/3/21
GENERATED VIA SPACETRACK.ORG API,18 SPCS,48904,SPACEBEE-111,PAYLOAD,U,21059AB,2023/2/8 19:21,145792,15.23793876,0.0009521,97.5813,175.4748,357.2023,2.9159,0,999,8984,0.0015327,0.0003702,0,3780893,0 SPACEBEE-111,1 48904U 21059AB  23039.80665678  .00037020  00000-0  15327-2 0  9997,2 48904  97.5813 175.4748 0009521 357.2023   2.9159 15.23793876 89841,2021-059AB,48904,6872.547,94.501,500.955,487.868,0,2023/3/22
GENERATED VIA SPACETRACK.ORG API,18 SPCS,48904,SPACEBEE-111,PAYLOAD,U,21059AB,2023/2/9 7:58,779616,15.23838638,0.0009422,97.581,176.0054,355.3221,4.7926,0,999,8992,0.0016813,0.00040689,0,3782313,0 SPACEBEE-111,1 48904U 21059AB  23040.33198819  .00040689  00000-0  16813-2 0  9991,2 48904  97.5810 176.0054 0009422 355.3221   4.7926 15.23838638 89921,2021-059AB,48904,6872.412,94.498,500.752,487.802,0,2023/3/23
GENERATED VIA SPACETRACK.ORG API,18 SPCS,48904,SPACEBEE-111,PAYLOAD,U,21059AB,2023/2/9 14:16,658048,15.23860072,0.0009392,97.5811,176.271,354.2959,5.817,0,999,8996,0.0017324,0.00041962,0,3782642,0 SPACEBEE-111,1 48904U 21059AB  23040.59464882  .00041962  00000-0  17324-2 0  9998,2 48904  97.5811 176.2710 0009392 354.2959   5.8170 15.23860072 89969,2021-059AB,48904,6872.348,94.497,500.667,487.758,0,2023/3/24
GENERATED VIA SPACETRACK.ORG API,18 SPCS,48904,SPACEBEE-111,PAYLOAD,U,21059AB,2023/2/9 20:34,224576,15.23880504,0.0009384,97.5811,176.5364,353.3889,6.7223,0,999,9000,0.0016474,0.00039912,0,3783241,0 SPACEBEE-111,1 48904U 21059AB  23040.85730584  .00039912  00000-0  16474-2 0  9999,2 48904  97.5811 176.5364 0009384 353.3889   6.7223 15.23880504 90008,2021-059AB,48904,6872.286,94.496,500.6,487.702,0,2023/3/25
GENERATED VIA SPACETRACK.ORG API,18 SPCS,48904,SPACEBEE-111,PAYLOAD,U,21059AB,2023/2/10 2:52,428224,15.23903732,0.0009381,97.581,176.8019,352.5267,7.5828,0,999,9004,0.001778,0.0004313,0,3784184,0 SPACEBEE-111,1 48904U 21059AB  23041.11995866  .00043130  00000-0  17780-2 0  9993,2 48904  97.5810 176.8019 0009381 352.5267   7.5828 15.23903732 90048,2021-059AB,48904,6872.216,94.494,500.528,487.634,0,2023/3/26
GENERATED VIA SPACETRACK.ORG API,18 SPCS,48904,SPACEBEE-111,PAYLOAD,U,21059AB,2023/2/10 7:36,60096,15.23927263,0.0009392,97.581,177.0011,351.865,8.2433,0,999,9007,0.0020182,0.0004904,0,3784910,0 SPACEBEE-111,1 48904U 21059AB  23041.31694514  .00049040  00000-0  20182-2 0  9997,2 48904  97.5810 177.0011 0009392 351.8650   8.2433 15.23927263 90071,2021-059AB,48904,6872.146,94.493,500.465,487.556,0,2023/3/27
GENERATED VIA SPACETRACK.ORG API,18 SPCS,48904,SPACEBEE-111,PAYLOAD,U,21059AB,2023/2/10 7:36,60096,15.23927263,0.0009392,97.581,177.0011,351.865,8.2433,0,999,9007,0.0020182,0.0004904,0,3785071,0 SPACEBEE-111,1 48904U 21059AB  23041.31694514  .00049040  00000-0  20182-2 0  9997,2 48904  97.5810 177.0011 0009392 351.8650   8.2433 15.23927263 90071,2021-059AB,48904,6872.146,94.493,500.465,487.556,0,2023/3/28
GENERATED VIA SPACETRACK.ORG API,18 SPCS,48904,SPACEBEE-111,PAYLOAD,U,21059AB,2023/2/11 2:31,806016,15.23993338,0.0009357,97.5812,177.7978,349.5032,10.6008,0,999,9019,0.0018386,0.00044731,0,3785233,0 SPACEBEE-111,1 48904U 21059AB  23042.10487044  .00044731  00000-0  18386-2 0  9998,2 48904  97.5812 177.7978 0009357 349.5032  10.6008 15.23993338 90195,2021-059AB,48904,6871.947,94.489,500.242,487.382,0,2023/3/29
GENERATED VIA SPACETRACK.ORG API,18 SPCS,48904,SPACEBEE-111,PAYLOAD,U,21059AB,2023/2/11 2:31,806016,15.23993338,0.0009357,97.5812,177.7978,349.5032,10.6008,0,999,9019,0.0018386,0.00044731,0,3786144,0 SPACEBEE-111,1 48904U 21059AB  23042.10487044  .00044731  00000-0  18386-2 0  9998,2 48904  97.5812 177.7978 0009357 349.5032  10.6008 15.23993338 90195,2021-059AB,48904,6871.947,94.489,500.242,487.382,0,2023/3/30
GENERATED VIA SPACETRACK.ORG API,18 SPCS,48904,SPACEBEE-111,PAYLOAD,U,21059AB,2023/2/11 8:49,309312,15.24018974,0.0009355,97.5812,178.0634,348.6786,11.4238,0,999,9023,0.0018561,0.00045195,0,3786577,0 SPACEBEE-111,1 48904U 21059AB  23042.36750358  .00045195  00000-0  18561-2 0  9997,2 48904  97.5812 178.0634 0009355 348.6786  11.4238 15.24018974 90236,2021-059AB,48904,6871.87,94.487,500.163,487.306,0,2023/3/31
GENERATED VIA SPACETRACK.ORG API,18 SPCS,48904,SPACEBEE-111,PAYLOAD,U,21059AB,2023/2/12 16:20,779168,15.24133177,0.0009308,97.5812,179.3911,343.7573,16.3364,0,999,9043,0.0018315,0.00044743,0,3787802,0 SPACEBEE-111,1 48904U 21059AB  23043.68061087  .00044743  00000-0  18315-2 0  9992,2 48904  97.5812 179.3911 0009308 343.7573  16.3364 15.24133177 90435,2021-059AB,48904,6871.527,94.48,499.788,486.996,0,2023/4/1
GENERATED VIA SPACETRACK.ORG API,18 SPCS,48904,SPACEBEE-111,PAYLOAD,U,21059AB,2023/2/12 21:03,895936,15.24147338,0.0009347,97.5811,179.5902,342.5512,17.5403,0,999,9046,0.0016284,0.00039764,0,3789366,0 SPACEBEE-111,1 48904U 21059AB  23043.87756824  .00039764  00000-0  16284-2 0  9993,2 48904  97.5811 179.5902 0009347 342.5512  17.5403 15.24147338 90463,2021-059AB,48904,6871.484,94.479,499.772,486.926,0,2023/4/2
